{
  "norad_id": 58304,
  "name": "FLOCK 4Q-29",
  "history": [
    {
      "epoch": "2026-03-28T18:09:45.383328Z",
      "apogee_km": 418.78211946485953,
      "perigee_km": 409.9043477995019,
      "latitude_deg": -2.8090453398900568e-05,
      "longitude_deg": 78.41285881076192,
      "height_km": 417.0546104348428,
      "semi_major_axis_km": 6792.48023363218,
      "eccentricity": 0.0006535,
      "inclination_deg": 97.3929,
      "raan_deg": 177.0246,
      "arg_perigee_deg": 84.7211,
      "mean_anomaly_deg": 275.4786,
      "mean_motion_rev_day": 15.50815693
    },
    {
      "epoch": "2026-03-29T05:00:09.266976Z",
      "apogee_km": 418.62245419302235,
      "perigee_km": 409.8059823117319,
      "latitude_deg": 3.105493672933166e-05,
      "longitude_deg": -84.16794566333272,
      "height_km": 416.7946441311697,
      "semi_major_axis_km": 6792.351218252377,
      "eccentricity": 0.000649,
      "inclination_deg": 97.3929,
      "raan_deg": 177.4885,
      "arg_perigee_deg": 82.97,
      "mean_anomaly_deg": 277.229,
      "mean_motion_rev_day": 15.50859878
    },
    {
      "epoch": "2026-03-29T23:35:05.057952Z",
      "apogee_km": 418.36928264385006,
      "perigee_km": 409.6712460511262,
      "latitude_deg": -8.268468579810676e-06,
      "longitude_deg": -2.868544961027312,
      "height_km": 416.41788380411856,
      "semi_major_axis_km": 6792.157264347488,
      "eccentricity": 0.0006403,
      "inclination_deg": 97.3931,
      "raan_deg": 178.2835,
      "arg_perigee_deg": 80.4348,
      "mean_anomaly_deg": 279.7627,
      "mean_motion_rev_day": 15.50926307
    },
    {
      "epoch": "2026-03-29T23:35:05.058816Z",
      "apogee_km": 418.36907887913276,
      "perigee_km": 409.6714498158444,
      "latitude_deg": -4.885377699221243e-06,
      "longitude_deg": -2.8685490074121045,
      "height_km": 416.4179176707694,
      "semi_major_axis_km": 6792.157264347488,
      "eccentricity": 0.00064027,
      "inclination_deg": 97.3931,
      "raan_deg": 178.2835,
      "arg_perigee_deg": 80.4348,
      "mean_anomaly_deg": 279.7627,
      "mean_motion_rev_day": 15.50926307
    },
    {
      "epoch": "2026-03-30T11:58:20.523360Z",
      "apogee_km": 418.1931662831412,
      "perigee_km": 409.5845451920277,
      "latitude_deg": 2.338511721347587e-05,
      "longitude_deg": 171.3382704827183,
      "height_km": 416.16908427749604,
      "semi_major_axis_km": 6792.025855737584,
      "eccentricity": 0.00063373,
      "inclination_deg": 97.3933,
      "raan_deg": 178.8135,
      "arg_perigee_deg": 78.742,
      "mean_anomaly_deg": 281.4544,
      "mean_motion_rev_day": 15.50971317
    },
    {
      "epoch": "2026-03-30T18:09:57.869856Z",
      "apogee_km": 418.07171458656285,
      "perigee_km": 409.5994080135979,
      "latitude_deg": 1.9814234619512732e-05,
      "longitude_deg": 78.44269431902605,
      "height_km": 416.08052754490666,
      "semi_major_axis_km": 6791.97256130008,
      "eccentricity": 0.0006237,
      "inclination_deg": 97.3932,
      "raan_deg": 179.0779,
      "arg_perigee_deg": 78.0675,
      "mean_anomaly_deg": 282.1276,
      "mean_motion_rev_day": 15.50989572
    },
    {
      "epoch": "2026-03-31T05:00:17.614080Z",
      "apogee_km": 417.95129374956923,
      "perigee_km": 409.5497288980614,
      "latitude_deg": -2.694229396306548e-05,
      "longitude_deg": -84.12070110559957,
      "height_km": 415.8808203818733,
      "semi_major_axis_km": 6791.887511323815,
      "eccentricity": 0.0006185,
      "inclination_deg": 97.3933,
      "raan_deg": 179.5419,
      "arg_perigee_deg": 76.3583,
      "mean_anomaly_deg": 283.8357,
      "mean_motion_rev_day": 15.51018705
    },
    {
      "epoch": "2026-04-01T11:58:18.052320Z",
      "apogee_km": 417.60674560931966,
      "perigee_km": 409.3522149391947,
      "latitude_deg": -5.3463232987358565e-05,
      "longitude_deg": 171.4308172328951,
      "height_km": 415.3398234342564,
      "semi_major_axis_km": 6791.616480274257,
      "eccentricity": 0.0006077,
      "inclination_deg": 97.393,
      "raan_deg": 180.867,
      "arg_perigee_deg": 72.2055,
      "mean_anomaly_deg": 287.9859,
      "mean_motion_rev_day": 15.5111155
    },
    {
      "epoch": "2026-04-02T11:11:43.875456Z",
      "apogee_km": 417.3413853711054,
      "perigee_km": 409.1450044414778,
      "latitude_deg": 5.2127093958143557e-05,
      "longitude_deg": -176.88646105589302,
      "height_km": 414.8883208444082,
      "semi_major_axis_km": 6791.380194906292,
      "eccentricity": 0.00060344,
      "inclination_deg": 97.3929,
      "raan_deg": 181.8611,
      "arg_perigee_deg": 68.8762,
      "mean_anomaly_deg": 291.3135,
      "mean_motion_rev_day": 15.511925
    },
    {
      "epoch": "2026-04-03T18:09:29.886624Z",
      "apogee_km": 416.87078668292907,
      "perigee_km": 408.8085391886916,
      "latitude_deg": 1.544392761607798e-05,
      "longitude_deg": 78.72623456644128,
      "height_km": 414.20793706293074,
      "semi_major_axis_km": 6790.97666293581,
      "eccentricity": 0.0005936,
      "inclination_deg": 97.3927,
      "raan_deg": 183.1871,
      "arg_perigee_deg": 64.1988,
      "mean_anomaly_deg": 295.9876,
      "mean_motion_rev_day": 15.51330764
    },
    {
      "epoch": "2026-04-04T04:59:40.455168Z",
      "apogee_km": 416.62253994744697,
      "perigee_km": 408.71071045979534,
      "latitude_deg": 2.0088961945843766e-05,
      "longitude_deg": -83.79893160485193,
      "height_km": 413.9211663734672,
      "semi_major_axis_km": 6790.803625203621,
      "eccentricity": 0.00058254,
      "inclination_deg": 97.3923,
      "raan_deg": 183.651,
      "arg_perigee_deg": 61.8093,
      "mean_anomaly_deg": 298.3747,
      "mean_motion_rev_day": 15.51390059
    },
    {
      "epoch": "2026-04-05T05:45:43.554816Z",
      "apogee_km": 416.2892956200676,
      "perigee_km": 408.52634478161326,
      "latitude_deg": -4.8809726535475885e-05,
      "longitude_deg": -95.26800531678849,
      "height_km": 413.480475659912,
      "semi_major_axis_km": 6790.54482020084,
      "eccentricity": 0.0005716,
      "inclination_deg": 97.3923,
      "raan_deg": 184.712,
      "arg_perigee_deg": 58.0953,
      "mean_anomaly_deg": 302.0854,
      "mean_motion_rev_day": 15.51478751
    }
  ]
}